CCSDS_OMM_VERS = 2.0
CREATION_DATE  = 
ORIGINATOR     = 

OBJECT_NAME    = STARLINK-36925
OBJECT_ID      = 2026-041C
CENTER_NAME    = EARTH
REF_FRAME      = TEME
TIME_SYSTEM    = UTC
MEAN_ELEMENT_THEORY = SGP/SGP4

EPOCH          = 2026-03-20T22:28:41.786400
MEAN_MOTION    = 15.75337295
ECCENTRICITY   = .0000773
INCLINATION    = 53.1592
RA_OF_ASC_NODE = 6.0368
ARG_OF_PERICENTER = 109.3157
MEAN_ANOMALY   = 250.7947

EPHEMERIS_TYPE = 0
CLASSIFICATION_TYPE = U
NORAD_CAT_ID   = 68042
ELEMENT_SET_NO = 999
REV_AT_EPOCH   = 299
BSTAR          = .15262699E-2
MEAN_MOTION_DOT = .241146E-2
MEAN_MOTION_DDOT = 0

CCSDS_OMM_VERS = 2.0
CREATION_DATE  = 
ORIGINATOR     = 

OBJECT_NAME    = STARLINK-36902
OBJECT_ID      = 2026-041D
CENTER_NAME    = EARTH
REF_FRAME      = TEME
TIME_SYSTEM    = UTC
MEAN_ELEMENT_THEORY = SGP/SGP4

EPOCH          = 2026-03-20T21:53:23.635968
MEAN_MOTION    = 15.80982104
ECCENTRICITY   = .00010457
INCLINATION    = 53.1601
RA_OF_ASC_NODE = 5.8744
ARG_OF_PERICENTER = 81.6637
MEAN_ANOMALY   = 278.4505

EPHEMERIS_TYPE = 0
CLASSIFICATION_TYPE = U
NORAD_CAT_ID   = 68043
ELEMENT_SET_NO = 999
REV_AT_EPOCH   = 299
BSTAR          = .1468541E-2
MEAN_MOTION_DOT = .300986E-2
MEAN_MOTION_DDOT = 0

CCSDS_OMM_VERS = 2.0
CREATION_DATE  = 
ORIGINATOR     = 

OBJECT_NAME    = STARLINK-36966
OBJECT_ID      = 2026-041E
CENTER_NAME    = EARTH
REF_FRAME      = TEME
TIME_SYSTEM    = UTC
MEAN_ELEMENT_THEORY = SGP/SGP4

EPOCH          = 2026-03-20T22:22:09.628896
MEAN_MOTION    = 15.75316927
ECCENTRICITY   = .00007325
INCLINATION    = 53.1597
RA_OF_ASC_NODE = 6.0069
ARG_OF_PERICENTER = 59.7283
MEAN_ANOMALY   = 300.3810

EPHEMERIS_TYPE = 0
CLASSIFICATION_TYPE = U
NORAD_CAT_ID   = 68044
ELEMENT_SET_NO = 999
REV_AT_EPOCH   = 299
BSTAR          = .12413634E-2
MEAN_MOTION_DOT = .194753E-2
MEAN_MOTION_DDOT = 0

CCSDS_OMM_VERS = 2.0
CREATION_DATE  = 
ORIGINATOR     = 

OBJECT_NAME    = STARLINK-36864
OBJECT_ID      = 2026-041F
CENTER_NAME    = EARTH
REF_FRAME      = TEME
TIME_SYSTEM    = UTC
MEAN_ELEMENT_THEORY = SGP/SGP4

EPOCH          = 2026-03-20T22:21:41.285376
MEAN_MOTION    = 15.75326007
ECCENTRICITY   = .00010156
INCLINATION    = 53.1599
RA_OF_ASC_NODE = 6.0051
ARG_OF_PERICENTER = 99.3417
MEAN_ANOMALY   = 260.7718

EPHEMERIS_TYPE = 0
CLASSIFICATION_TYPE = U
NORAD_CAT_ID   = 68045
ELEMENT_SET_NO = 999
REV_AT_EPOCH   = 299
BSTAR          = .12726618E-2
MEAN_MOTION_DOT = .19988E-2
MEAN_MOTION_DDOT = 0

CCSDS_OMM_VERS = 2.0
CREATION_DATE  = 
ORIGINATOR     = 

OBJECT_NAME    = STARLINK-36321
OBJECT_ID      = 2026-041G
CENTER_NAME    = EARTH
REF_FRAME      = TEME
TIME_SYSTEM    = UTC
MEAN_ELEMENT_THEORY = SGP/SGP4

EPOCH          = 2026-03-20T21:49:04.145664
MEAN_MOTION    = 15.80974483
ECCENTRICITY   = .00011532
INCLINATION    = 53.1602
RA_OF_ASC_NODE = 5.8545
ARG_OF_PERICENTER = 48.0760
MEAN_ANOMALY   = 312.0361

EPHEMERIS_TYPE = 0
CLASSIFICATION_TYPE = U
NORAD_CAT_ID   = 68046
ELEMENT_SET_NO = 999
REV_AT_EPOCH   = 299
BSTAR          = .10590617E-2
MEAN_MOTION_DOT = .214603E-2
MEAN_MOTION_DDOT = 0

CCSDS_OMM_VERS = 2.0
CREATION_DATE  = 
ORIGINATOR     = 

OBJECT_NAME    = STARLINK-36181
OBJECT_ID      = 2026-041H
CENTER_NAME    = EARTH
REF_FRAME      = TEME
TIME_SYSTEM    = UTC
MEAN_ELEMENT_THEORY = SGP/SGP4

EPOCH          = 2026-03-20T21:50:09.107232
MEAN_MOTION    = 15.80984345
ECCENTRICITY   = .00010846
INCLINATION    = 53.1600
RA_OF_ASC_NODE = 5.8587
ARG_OF_PERICENTER = 58.4151
MEAN_ANOMALY   = 301.6978

EPHEMERIS_TYPE = 0
CLASSIFICATION_TYPE = U
NORAD_CAT_ID   = 68047
ELEMENT_SET_NO = 999
REV_AT_EPOCH   = 299
BSTAR          = .13575184E-2
MEAN_MOTION_DOT = .277439E-2
MEAN_MOTION_DDOT = 0

CCSDS_OMM_VERS = 2.0
CREATION_DATE  = 
ORIGINATOR     = 

OBJECT_NAME    = STARLINK-36318
OBJECT_ID      = 2026-041J
CENTER_NAME    = EARTH
REF_FRAME      = TEME
TIME_SYSTEM    = UTC
MEAN_ELEMENT_THEORY = SGP/SGP4

EPOCH          = 2026-03-20T22:15:37.655424
MEAN_MOTION    = 15.75316799
ECCENTRICITY   = .00009519
INCLINATION    = 53.1606
RA_OF_ASC_NODE = 5.9766
ARG_OF_PERICENTER = 84.7459
MEAN_ANOMALY   = 275.3670

EPHEMERIS_TYPE = 0
CLASSIFICATION_TYPE = U
NORAD_CAT_ID   = 68048
ELEMENT_SET_NO = 999
REV_AT_EPOCH   = 299
BSTAR          = .12452641E-2
MEAN_MOTION_DOT = .195379E-2
MEAN_MOTION_DDOT = 0

CCSDS_OMM_VERS = 2.0
CREATION_DATE  = 
ORIGINATOR     = 

OBJECT_NAME    = STARLINK-36885
OBJECT_ID      = 2026-041K
CENTER_NAME    = EARTH
REF_FRAME      = TEME
TIME_SYSTEM    = UTC
MEAN_ELEMENT_THEORY = SGP/SGP4

EPOCH          = 2026-03-20T22:15:09.266976
MEAN_MOTION    = 15.75278739
ECCENTRICITY   = .00013408
INCLINATION    = 53.1606
RA_OF_ASC_NODE = 5.9738
ARG_OF_PERICENTER = 100.8665
MEAN_ANOMALY   = 259.2506

EPHEMERIS_TYPE = 0
CLASSIFICATION_TYPE = U
NORAD_CAT_ID   = 68049
ELEMENT_SET_NO = 999
REV_AT_EPOCH   = 299
BSTAR          = .10463795E-2
MEAN_MOTION_DOT = .16317E-2
MEAN_MOTION_DDOT = 0

CCSDS_OMM_VERS = 2.0
CREATION_DATE  = 
ORIGINATOR     = 

OBJECT_NAME    = STARLINK-36945
OBJECT_ID      = 2026-041L
CENTER_NAME    = EARTH
REF_FRAME      = TEME
TIME_SYSTEM    = UTC
MEAN_ELEMENT_THEORY = SGP/SGP4

EPOCH          = 2026-03-20T23:17:56.486688
MEAN_MOTION    = 15.80999916
ECCENTRICITY   = .00008514
INCLINATION    = 53.1597
RA_OF_ASC_NODE = 5.5266
ARG_OF_PERICENTER = 97.2704
MEAN_ANOMALY   = 262.8416

EPHEMERIS_TYPE = 0
CLASSIFICATION_TYPE = U
NORAD_CAT_ID   = 68050
ELEMENT_SET_NO = 999
REV_AT_EPOCH   = 300
BSTAR          = .14280775E-2
MEAN_MOTION_DOT = .292629E-2
MEAN_MOTION_DDOT = 0

CCSDS_OMM_VERS = 2.0
CREATION_DATE  = 
ORIGINATOR     = 

OBJECT_NAME    = STARLINK-35911
OBJECT_ID      = 2026-041M
CENTER_NAME    = EARTH
REF_FRAME      = TEME
TIME_SYSTEM    = UTC
MEAN_ELEMENT_THEORY = SGP/SGP4

EPOCH          = 2026-03-20T23:15:47.014560
MEAN_MOTION    = 15.80942176
ECCENTRICITY   = .00009908
INCLINATION    = 53.1598
RA_OF_ASC_NODE = 5.5168
ARG_OF_PERICENTER = 86.3731
MEAN_ANOMALY   = 273.7405

EPHEMERIS_TYPE = 0
CLASSIFICATION_TYPE = U
NORAD_CAT_ID   = 68051
ELEMENT_SET_NO = 999
REV_AT_EPOCH   = 300
BSTAR          = .23065436E-2
MEAN_MOTION_DOT = .482468E-2
MEAN_MOTION_DDOT = 0

CCSDS_OMM_VERS = 2.0
CREATION_DATE  = 
ORIGINATOR     = 

OBJECT_NAME    = STARLINK-35808
OBJECT_ID      = 2026-041N
CENTER_NAME    = EARTH
REF_FRAME      = TEME
TIME_SYSTEM    = UTC
MEAN_ELEMENT_THEORY = SGP/SGP4

EPOCH          = 2026-03-20T21:44:11.209920
MEAN_MOTION    = 15.79508384
ECCENTRICITY   = .00066724
INCLINATION    = 53.1598
RA_OF_ASC_NODE = 5.8301
ARG_OF_PERICENTER = 229.6244
MEAN_ANOMALY   = 130.4196

EPHEMERIS_TYPE = 0
CLASSIFICATION_TYPE = U
NORAD_CAT_ID   = 68052
ELEMENT_SET_NO = 999
REV_AT_EPOCH   = 299
BSTAR          = .10013541E-2
MEAN_MOTION_DOT = .189333E-2
MEAN_MOTION_DDOT = 0

CCSDS_OMM_VERS = 2.0
CREATION_DATE  = 
ORIGINATOR     = 

OBJECT_NAME    = STARLINK-36919
OBJECT_ID      = 2026-041P
CENTER_NAME    = EARTH
REF_FRAME      = TEME
TIME_SYSTEM    = UTC
MEAN_ELEMENT_THEORY = SGP/SGP4

EPOCH          = 2026-03-20T23:13:36.366528
MEAN_MOTION    = 15.80919673
ECCENTRICITY   = .000104
INCLINATION    = 53.1598
RA_OF_ASC_NODE = 5.5054
ARG_OF_PERICENTER = 128.1716
MEAN_ANOMALY   = 231.9400

EPHEMERIS_TYPE = 0
CLASSIFICATION_TYPE = U
NORAD_CAT_ID   = 68053
ELEMENT_SET_NO = 999
REV_AT_EPOCH   = 300
BSTAR          = .19961908E-3
MEAN_MOTION_DOT = .38962E-3
MEAN_MOTION_DDOT = 0

