STARLINK-36925          
1 68042U 26041C   26079.93659475  .00241146  00000+0  15263-2 0  9991
2 68042  53.1592   6.0368 0000773 109.3157 250.7947 15.75337295  2994
STARLINK-36902          
1 68043U 26041D   26079.91207912  .00300986  00000+0  14685-2 0  9990
2 68043  53.1601   5.8744 0001045  81.6637 278.4505 15.80982104  2997
STARLINK-36966          
1 68044U 26041E   26079.93205589  .00194753  00000+0  12414-2 0  9992
2 68044  53.1597   6.0069 0000732  59.7283 300.3810 15.75316927  2992
STARLINK-36864          
1 68045U 26041F   26079.93172784  .00199880  00000+0  12727-2 0  9996
2 68045  53.1599   6.0051 0001015  99.3417 260.7718 15.75326007  2996
STARLINK-36321          
1 68046U 26041G   26079.90907576  .00214603  00000+0  10591-2 0  9997
2 68046  53.1602   5.8545 0001153  48.0760 312.0361 15.80974483  2990
STARLINK-36181          
1 68047U 26041H   26079.90982763  .00277439  00000+0  13575-2 0  9990
2 68047  53.1600   5.8587 0001084  58.4151 301.6978 15.80984345  2993
STARLINK-36318          
1 68048U 26041J   26079.92751916  .00195379  00000+0  12453-2 0  9993
2 68048  53.1606   5.9766 0000951  84.7459 275.3670 15.75316799  2997
STARLINK-36885          
1 68049U 26041K   26079.92719059  .00163170  00000+0  10464-2 0  9990
2 68049  53.1606   5.9738 0001340 100.8665 259.2506 15.75278739  2999
STARLINK-36945          
1 68050U 26041L   26079.97079267  .00292629  00000+0  14281-2 0  9990
2 68050  53.1597   5.5266 0000851  97.2704 262.8416 15.80999916  3007
STARLINK-35911          
1 68051U 26041M   26079.96929415  .00482468  00000+0  23065-2 0  9991
2 68051  53.1598   5.5168 0000990  86.3731 273.7405 15.80942176  3008
STARLINK-35808          
1 68052U 26041N   26079.90568530  .00189333  00000+0  10014-2 0  9998
2 68052  53.1598   5.8301 0006672 229.6244 130.4196 15.79508384  2995
STARLINK-36919          
1 68053U 26041P   26079.96778202  .00038962  00000+0  19962-3 0  9997
2 68053  53.1598   5.5054 0001040 128.1716 231.9400 15.80919673  3006
